*******************************************************************************
JPL/HORIZONS                 2 Pallas (A802 FA)            2022-May-10 16:38:26
Rec #:       2 (+COV) Soln.date: 2022-Apr-14_14:47:29   # obs: 9025 (1804-2022)
 
IAU76/J2000 helio. ecliptic osc. elements (au, days, deg., period=Julian yrs):
 
  EPOCH=  2449976.5 ! 1995-Sep-16.00 (TDB)         Residual RMS= .37134
   EC= .2338123415749628   QR= 2.123204751285651   TP= 2449888.234262689
   OM= 173.2983467771782   W=  309.6979606055149   IN= 34.80769754202284
   A= 2.771128884599989    MA= 18.85867340545694   ADIST= 3.419053017914328
   PER= 4.6131             N= .213657909           ANGMOM= .027842097
   DAN= 2.27924            DDN= 3.07955            L= 128.6135357
   B= -26.0531402          MOID= 1.22421002        TP= 1995-Jun-19.7342626890
 
Asteroid physical parameters (km, seconds, rotational period in hours):
   GM= 13.63               RAD= 256.5              ROTPER= 7.813221
   H= 4.11                 G= .110                 B-V= .635
                           ALBEDO= .155            STYP= B
 
ASTEROID comments: 
1: soln ref.= JPL#52, OCC=0
2: source=ORB
*******************************************************************************


*******************************************************************************
Ephemeris / WWW_USER Tue May 10 16:38:26 2022 Pasadena, USA      / Horizons
*******************************************************************************
Target body name: 2 Pallas (A802 FA)              {source: JPL#52}
Center body name: Earth (399)                     {source: DE441}
Center-site name: BODY CENTER
*******************************************************************************
Start time      : A.D. 2020-Jan-01 00:00:00.0000 TDB
Stop  time      : A.D. 2040-Jan-01 00:00:00.0000 TDB
Step-size       : 14400 minutes
*******************************************************************************
Center geodetic : 0.00000000,0.00000000,0.0000000 {E-lon(deg),Lat(deg),Alt(km)}
Center cylindric: 0.00000000,0.00000000,0.0000000 {E-lon(deg),Dxy(km),Dz(km)}
Center radii    : 6378.1 x 6378.1 x 6356.8 km     {Equator, meridian, pole}    
Small perturbers: Yes                             {source: SB441-N16}
Output units    : AU-D
Output type     : GEOMETRIC cartesian states
Output format   : 2 (position and velocity)
EOP file        : eop.220510.p220802
EOP coverage    : DATA-BASED 1962-JAN-20 TO 2022-MAY-10. PREDICTS-> 2022-AUG-01
Reference frame : ICRF
*******************************************************************************
Initial IAU76/J2000 heliocentric ecliptic osculating elements (au, days, deg.):
  EPOCH=  2449976.5 ! 1995-Sep-16.00 (TDB)         Residual RMS= .37134        
   EC= .2338123415749628   QR= 2.123204751285651   TP= 2449888.234262689       
   OM= 173.2983467771782   W=  309.6979606055149   IN= 34.80769754202284       
  Equivalent ICRF heliocentric cartesian coordinates (au, au/d):
   X=-1.970054913847300E+00  Y= 9.344601720792679E-01  Z=-5.069228381032120E-02
  VX=-6.556101132986031E-03 VY=-1.072367279805506E-02 VZ= 2.566511942726757E-03
Asteroid physical parameters (km, seconds, rotational period in hours):        
   GM= 13.63               RAD= 256.5              ROTPER= 7.813221            
   H= 4.11                 G= .110                 B-V= .635                   
                           ALBEDO= .155            STYP= B                     
*******************************************************************************
JDTDB
   X     Y     Z
   VX    VY    VZ
*******************************************************************************
$$SOE
2459139.500000000 = A.D. 2020-Oct-17 00:00:00.0000 TDB 
 X = 8.407724562547850E-01 Y =-3.259522751527349E+00 Z = 2.876433482939194E-01
 VX= 1.429279361232686E-02 VY=-1.047709531920676E-02 VZ=-7.517460444445602E-03
2459149.500000000 = A.D. 2020-Oct-27 00:00:00.0000 TDB 
 X = 9.963346971517335E-01 Y =-3.356918620394996E+00 Z = 2.150326788033524E-01
 VX= 1.677386439951126E-02 VY=-8.933147515380080E-03 VZ=-6.973846127100359E-03
2459159.500000000 = A.D. 2020-Nov-06 00:00:00.0000 TDB 
 X = 1.175287524420151E+00 Y =-3.436924151005458E+00 Z = 1.487225079228056E-01
 VX= 1.896641038593213E-02 VY=-7.007601354891544E-03 VZ=-6.261987692574828E-03
2459169.500000000 = A.D. 2020-Nov-16 00:00:00.0000 TDB 
 X = 1.374559129125037E+00 Y =-3.495864554951054E+00 Z = 9.031534204654844E-02
 VX= 2.082343439322958E-02 VY=-4.720451409494782E-03 VZ=-5.393025780585477E-03
2459179.500000000 = A.D. 2020-Nov-26 00:00:00.0000 TDB 
 X = 1.590239034384309E+00 Y =-3.530312580787714E+00 Z = 4.132305623752427E-02
 VX= 2.223285721595883E-02 VY=-2.129676573467356E-03 VZ=-4.387602587932375E-03
2459189.500000000 = A.D. 2020-Dec-06 00:00:00.0000 TDB 
 X = 1.817637370176043E+00 Y =-3.537794208955265E+00 Z = 2.855480825188667E-03
 VX= 2.316765297229810E-02 VY= 6.626612578358547E-04 VZ=-3.293284061111162E-03
2459199.500000000 = A.D. 2020-Dec-16 00:00:00.0000 TDB 
 X = 2.051919616948747E+00 Y =-3.516522729385684E+00 Z =-2.430657664048570E-02
 VX= 2.359667173450770E-02 VY= 3.612700012564629E-03 VZ=-2.129172965845078E-03
2459209.500000000 = A.D. 2020-Dec-26 00:00:00.0000 TDB 
 X = 2.287658241439039E+00 Y =-3.465389113168315E+00 Z =-3.964417081528881E-02
 VX= 2.345886476802547E-02 VY= 6.610469960814684E-03 VZ=-9.394608726199713E-04
2459219.500000000 = A.D. 2021-Jan-05 00:00:00.0000 TDB 
 X = 2.519340644442974E+00 Y =-3.384494886449740E+00 Z =-4.317343049112433E-02
 VX= 2.279241942972462E-02 VY= 9.555923266243861E-03 VZ= 2.281784538013370E-04
2459229.500000000 = A.D. 2021-Jan-15 00:00:00.0000 TDB 
 X = 2.741743524745115E+00 Y =-3.274609886524977E+00 Z =-3.521754348368357E-02
 VX= 2.159641999960729E-02 VY= 1.239407566679450E-02 VZ= 1.352341809082259E-03
2459239.500000000 = A.D. 2021-Jan-25 00:00:00.0000 TDB 
 X = 2.949547606619690E+00 Y =-3.137398595771283E+00 Z =-1.645283045740556E-02
 VX= 1.988734391976001E-02 VY= 1.500149010711510E-02 VZ= 2.380549561695470E-03
2459249.500000000 = A.D. 2021-Feb-04 00:00:00.0000 TDB 
 X = 3.138098613640777E+00 Y =-2.975566834954333E+00 Z = 1.196578529521080E-02
 VX= 1.775740082983662E-02 VY= 1.731455546508376E-02 VZ= 3.281591826278901E-03
2459259.500000000 = A.D. 2021-Feb-14 00:00:00.0000 TDB 
 X = 3.303375983892180E+00 Y =-2.792231255667468E+00 Z = 4.870859641516578E-02
 VX= 1.523575103222343E-02 VY= 1.928610059683891E-02 VZ= 4.039124455678493E-03
2459269.500000000 = A.D. 2021-Feb-24 00:00:00.0000 TDB 
 X = 3.441798743927497E+00 Y =-2.591304425613120E+00 Z = 9.212437197187950E-02
 VX= 1.240958112601838E-02 VY= 2.082427364584730E-02 VZ= 4.611571312399209E-03
2459279.500000000 = A.D. 2021-Mar-06 00:00:00.0000 TDB 
 X = 3.550943159736405E+00 Y =-2.377209988622727E+00 Z = 1.403075635014923E-01
 VX= 9.391017875554917E-03 VY= 2.192282899451014E-02 VZ= 4.994603045005781E-03
2459289.500000000 = A.D. 2021-Mar-16 00:00:00.0000 TDB 
 X = 3.629111302131631E+00 Y =-2.154403497235924E+00 Z = 1.913618435663413E-01
 VX= 6.226640931920458E-03 VY= 2.255454171118614E-02 VZ= 5.180554005223330E-03
2459299.500000000 = A.D. 2021-Mar-26 00:00:00.0000 TDB 
 X = 3.675408565739016E+00 Y =-1.927792148684716E+00 Z = 2.431979548136991E-01
 VX= 3.040161567941835E-03 VY= 2.268754945037873E-02 VZ= 5.151936623864988E-03
2459309.500000000 = A.D. 2021-Apr-05 00:00:00.0000 TDB 
 X = 3.690163766762796E+00 Y =-1.702144150479508E+00 Z = 2.937617860833838E-01
 VX=-7.623946371761883E-05 VY= 2.236918431516249E-02 VZ= 4.930293971404783E-03
2459319.500000000 = A.D. 2021-Apr-15 00:00:00.0000 TDB 
 X = 3.674271294010296E+00 Y =-1.481944907452174E+00 Z = 3.411558382491087E-01
 VX=-3.071719855626700E-03 VY= 2.159370494407044E-02 VZ= 4.515548271601837E-03
2459329.500000000 = A.D. 2021-Apr-25 00:00:00.0000 TDB 
 X = 3.629540349677052E+00 Y =-1.271697057530629E+00 Z = 3.834566083226534E-01
 VX=-5.826733245540497E-03 VY= 2.039222668454327E-02 VZ= 3.917176610628161E-03
2459339.500000000 = A.D. 2021-May-05 00:00:00.0000 TDB 
 X = 3.558694751947973E+00 Y =-1.075240592059177E+00 Z = 4.190204802715416E-01
 VX=-8.295099522404491E-03 VY= 1.884227816912714E-02 VZ= 3.172167780654674E-03
2459349.500000000 = A.D. 2021-May-15 00:00:00.0000 TDB 
 X = 3.464751826040907E+00 Y =-8.959854737705359E-01 Z = 4.464218117897811E-01
 VX=-1.042860327317947E-02 VY= 1.695702751676293E-02 VZ= 2.285884233411550E-03
2459359.500000000 = A.D. 2021-May-25 00:00:00.0000 TDB 
 X = 3.351533398591363E+00 Y =-7.369577166832793E-01 Z = 4.643694964021786E-01
 VX=-1.214278175123334E-02 VY= 1.481541403042997E-02 VZ= 1.289776800924330E-03
2459369.500000000 = A.D. 2021-Jun-04 00:00:00.0000 TDB 
 X = 3.223264101443056E+00 Y =-6.002505211176578E-01 Z = 4.719905230571051E-01
 VX=-1.344199984159306E-02 VY= 1.249669067884665E-02 VZ= 2.227306112326095E-04
2459379.500000000 = A.D. 2021-Jun-14 00:00:00.0000 TDB 
 X = 3.084221277099544E+00 Y =-4.875216350705007E-01 Z = 4.686171312922982E-01
 VX=-1.428483087872043E-02 VY= 1.003226590697082E-02 VZ=-9.045532659091684E-04
2459389.500000000 = A.D. 2021-Jun-24 00:00:00.0000 TDB 
 X = 2.939211129176615E+00 Y =-3.997396424740536E-01 Z = 4.538481246265327E-01
 VX=-1.463927392411287E-02 VY= 7.526263196979445E-03 VZ=-2.047409623266467E-03
2459399.500000000 = A.D. 2021-Jul-04 00:00:00.0000 TDB 
 X = 2.792898312363830E+00 Y =-3.369336387306988E-01 Z = 4.277197597044143E-01
 VX=-1.454784009557778E-02 VY= 5.038616613026081E-03 VZ=-3.175956938396936E-03
2459409.500000000 = A.D. 2021-Jul-14 00:00:00.0000 TDB 
 X = 2.649840390019087E+00 Y =-2.987475026778764E-01 Z = 3.904303482862189E-01
 VX=-1.398358994181509E-02 VY= 2.618915567741684E-03 VZ=-4.272892023335738E-03
2459419.500000000 = A.D. 2021-Jul-24 00:00:00.0000 TDB 
 X = 2.514725739702848E+00 Y =-2.839653478673672E-01 Z = 3.425313002020202E-01
 VX=-1.297309424479125E-02 VY= 3.719441599205988E-04 VZ=-5.290727986090898E-03
